{"type":"FeatureCollection","features":[{"type":"Feature","properties":{"name":"\u0427\u043e\u0440\u043d\u043e\u0431\u0438\u043b\u044c\u0441\u044c\u043a\u0430 \u0437\u043e\u043d\u0430 \u0432\u0456\u0434\u0447\u0443\u0436\u0435\u043d\u043d\u044f"},"geometry":{"type":"Polygon","coordinates":[[[30.0978,51.6539],[30.1402,51.6526],[30.1823,51.6487],[30.2235,51.6422],[30.2635,51.6333],[30.3019,51.622],[30.3384,51.6083],[30.3725,51.5925],[30.404,51.5747],[30.4326,51.5551],[30.4579,51.5338],[30.4797,51.511],[30.4979,51.487],[30.5122,51.4621],[30.5225,51.4363],[30.5288,51.4101],[30.5309,51.3836],[30.5288,51.3571],[30.5225,51.3309],[30.5122,51.3051],[30.4979,51.2802],[30.4797,51.2562],[30.4579,51.2334],[30.4326,51.2121],[30.404,51.1925],[30.3725,51.1747],[30.3384,51.1589],[30.3019,51.1452],[30.2635,51.1339],[30.2235,51.125],[30.1823,51.1185],[30.1402,51.1146],[30.0978,51.1133],[30.0554,51.1146],[30.0133,51.1185],[29.9721,51.125],[29.9321,51.1339],[29.8937,51.1452],[29.8572,51.1589],[29.8231,51.1747],[29.7916,51.1925],[29.763,51.2121],[29.7377,51.2334],[29.7159,51.2562],[29.6977,51.2802],[29.6834,51.3051],[29.6731,51.3309],[29.6668,51.3571],[29.6647,51.3836],[29.6668,51.4101],[29.6731,51.4363],[29.6834,51.4621],[29.6977,51.487],[29.7159,51.511],[29.7377,51.5338],[29.763,51.5551],[29.7916,51.5747],[29.8231,51.5925],[29.8572,51.6083],[29.8937,51.622],[29.9321,51.6333],[29.9721,51.6422],[30.0133,51.6487],[30.0554,51.6526],[30.0978,51.6539]]]}}]}